[{"OBJECT_NAME":"STARLINK-33592","OBJECT_ID":"2025-015H","EPOCH":"2026-03-19T20:08:55.785120","MEAN_MOTION":15.30205315,"ECCENTRICITY":9.83e-5,"INCLINATION":53.1566,"RA_OF_ASC_NODE":275.4142,"ARG_OF_PERICENTER":93.0231,"MEAN_ANOMALY":267.0882,"EPHEMERIS_TYPE":0,"CLASSIFICATION_TYPE":"U","NORAD_CAT_ID":62765,"ELEMENT_SET_NO":999,"REV_AT_EPOCH":6590,"BSTAR":0.00032918,"MEAN_MOTION_DOT":9.404e-5,"MEAN_MOTION_DDOT":0},{"OBJECT_NAME":"STARLINK-33595","OBJECT_ID":"2025-015J","EPOCH":"2026-03-19T19:32:27.979872","MEAN_MOTION":15.30163129,"ECCENTRICITY":0.0001028,"INCLINATION":53.1591,"RA_OF_ASC_NODE":275.2577,"ARG_OF_PERICENTER":22.4134,"MEAN_ANOMALY":337.6912,"EPHEMERIS_TYPE":0,"CLASSIFICATION_TYPE":"U","NORAD_CAT_ID":62766,"ELEMENT_SET_NO":999,"REV_AT_EPOCH":6603,"BSTAR":-0.00032211,"MEAN_MOTION_DOT":-9.875e-5,"MEAN_MOTION_DDOT":0},{"OBJECT_NAME":"STARLINK-33572","OBJECT_ID":"2025-015K","EPOCH":"2026-03-19T19:55:15.190752","MEAN_MOTION":15.3020418,"ECCENTRICITY":9.98e-5,"INCLINATION":53.1576,"RA_OF_ASC_NODE":275.3582,"ARG_OF_PERICENTER":98.2359,"MEAN_ANOMALY":261.8755,"EPHEMERIS_TYPE":0,"CLASSIFICATION_TYPE":"U","NORAD_CAT_ID":62767,"ELEMENT_SET_NO":999,"REV_AT_EPOCH":6597,"BSTAR":0.00037736,"MEAN_MOTION_DOT":0.00010835,"MEAN_MOTION_DDOT":0},{"OBJECT_NAME":"STARLINK-33601","OBJECT_ID":"2025-015L","EPOCH":"2026-03-19T19:46:08.041152","MEAN_MOTION":15.30212525,"ECCENTRICITY":0.0001198,"INCLINATION":53.1579,"RA_OF_ASC_NODE":275.316,"ARG_OF_PERICENTER":101.8006,"MEAN_ANOMALY":258.3129,"EPHEMERIS_TYPE":0,"CLASSIFICATION_TYPE":"U","NORAD_CAT_ID":62768,"ELEMENT_SET_NO":999,"REV_AT_EPOCH":6603,"BSTAR":0.00073276,"MEAN_MOTION_DOT":0.00021414,"MEAN_MOTION_DDOT":0},{"OBJECT_NAME":"STARLINK-33569","OBJECT_ID":"2025-015M","EPOCH":"2026-03-19T19:21:49.198752","MEAN_MOTION":15.30204548,"ECCENTRICITY":9.22e-5,"INCLINATION":53.1595,"RA_OF_ASC_NODE":275.2134,"ARG_OF_PERICENTER":92.7941,"MEAN_ANOMALY":267.3165,"EPHEMERIS_TYPE":0,"CLASSIFICATION_TYPE":"U","NORAD_CAT_ID":62769,"ELEMENT_SET_NO":999,"REV_AT_EPOCH":6603,"BSTAR":0.00090889,"MEAN_MOTION_DOT":0.0002666,"MEAN_MOTION_DDOT":0},{"OBJECT_NAME":"STARLINK-33594","OBJECT_ID":"2025-015N","EPOCH":"2026-03-19T20:45:14.069088","MEAN_MOTION":15.30208785,"ECCENTRICITY":7.09e-5,"INCLINATION":53.1582,"RA_OF_ASC_NODE":274.8621,"ARG_OF_PERICENTER":86.5852,"MEAN_ANOMALY":273.5229,"EPHEMERIS_TYPE":0,"CLASSIFICATION_TYPE":"U","NORAD_CAT_ID":62770,"ELEMENT_SET_NO":999,"REV_AT_EPOCH":6604,"BSTAR":0.0011252,"MEAN_MOTION_DOT":0.00033123,"MEAN_MOTION_DDOT":0},{"OBJECT_NAME":"STARLINK-33598","OBJECT_ID":"2025-015P","EPOCH":"2026-03-19T19:24:51.903648","MEAN_MOTION":15.30230044,"ECCENTRICITY":0.0001327,"INCLINATION":53.1606,"RA_OF_ASC_NODE":275.2202,"ARG_OF_PERICENTER":89.8947,"MEAN_ANOMALY":270.2206,"EPHEMERIS_TYPE":0,"CLASSIFICATION_TYPE":"U","NORAD_CAT_ID":62771,"ELEMENT_SET_NO":999,"REV_AT_EPOCH":6603,"BSTAR":0.00047216,"MEAN_MOTION_DOT":0.00013663,"MEAN_MOTION_DDOT":0},{"OBJECT_NAME":"STARLINK-33600","OBJECT_ID":"2025-015Q","EPOCH":"2026-03-19T17:14:30.218784","MEAN_MOTION":15.30199581,"ECCENTRICITY":0.0001411,"INCLINATION":53.157,"RA_OF_ASC_NODE":276.0779,"ARG_OF_PERICENTER":87.9964,"MEAN_ANOMALY":272.1199,"EPHEMERIS_TYPE":0,"CLASSIFICATION_TYPE":"U","NORAD_CAT_ID":62772,"ELEMENT_SET_NO":999,"REV_AT_EPOCH":6601,"BSTAR":0.00058968,"MEAN_MOTION_DOT":0.00017146,"MEAN_MOTION_DDOT":0},{"OBJECT_NAME":"STARLINK-33567","OBJECT_ID":"2025-015R","EPOCH":"2026-03-19T19:41:34.199808","MEAN_MOTION":15.30214807,"ECCENTRICITY":7.56e-5,"INCLINATION":53.1594,"RA_OF_ASC_NODE":275.2932,"ARG_OF_PERICENTER":85.9471,"MEAN_ANOMALY":274.1616,"EPHEMERIS_TYPE":0,"CLASSIFICATION_TYPE":"U","NORAD_CAT_ID":62773,"ELEMENT_SET_NO":999,"REV_AT_EPOCH":6603,"BSTAR":0.00055932,"MEAN_MOTION_DOT":0.0001625,"MEAN_MOTION_DDOT":0},{"OBJECT_NAME":"STARLINK-33574","OBJECT_ID":"2025-015S","EPOCH":"2026-03-19T19:30:56.307744","MEAN_MOTION":15.30214297,"ECCENTRICITY":0.0001121,"INCLINATION":53.1589,"RA_OF_ASC_NODE":275.2513,"ARG_OF_PERICENTER":101.0067,"MEAN_ANOMALY":259.106,"EPHEMERIS_TYPE":0,"CLASSIFICATION_TYPE":"U","NORAD_CAT_ID":62774,"ELEMENT_SET_NO":999,"REV_AT_EPOCH":6575,"BSTAR":0.0006113,"MEAN_MOTION_DOT":0.00017797,"MEAN_MOTION_DDOT":0},{"OBJECT_NAME":"STARLINK-33576","OBJECT_ID":"2025-015T","EPOCH":"2026-03-19T20:07:24.695328","MEAN_MOTION":15.30197577,"ECCENTRICITY":0.0001,"INCLINATION":53.1571,"RA_OF_ASC_NODE":275.4101,"ARG_OF_PERICENTER":90.7093,"MEAN_ANOMALY":269.4022,"EPHEMERIS_TYPE":0,"CLASSIFICATION_TYPE":"U","NORAD_CAT_ID":62775,"ELEMENT_SET_NO":999,"REV_AT_EPOCH":6597,"BSTAR":0.00073581,"MEAN_MOTION_DOT":0.00021495,"MEAN_MOTION_DDOT":0},{"OBJECT_NAME":"STARLINK-33570","OBJECT_ID":"2025-015U","EPOCH":"2026-03-19T19:29:25.287936","MEAN_MOTION":15.30186703,"ECCENTRICITY":0.0001102,"INCLINATION":53.1596,"RA_OF_ASC_NODE":275.2428,"ARG_OF_PERICENTER":66.878,"MEAN_ANOMALY":293.2337,"EPHEMERIS_TYPE":0,"CLASSIFICATION_TYPE":"U","NORAD_CAT_ID":62776,"ELEMENT_SET_NO":999,"REV_AT_EPOCH":6597,"BSTAR":0.00096781,"MEAN_MOTION_DOT":0.00028402,"MEAN_MOTION_DDOT":0},{"OBJECT_NAME":"STARLINK-33591","OBJECT_ID":"2025-015V","EPOCH":"2026-03-19T20:02:50.922240","MEAN_MOTION":15.30196752,"ECCENTRICITY":0.0001025,"INCLINATION":53.1576,"RA_OF_ASC_NODE":275.387,"ARG_OF_PERICENTER":96.8536,"MEAN_ANOMALY":263.2581,"EPHEMERIS_TYPE":0,"CLASSIFICATION_TYPE":"U","NORAD_CAT_ID":62777,"ELEMENT_SET_NO":999,"REV_AT_EPOCH":6603,"BSTAR":0.00093346,"MEAN_MOTION_DOT":0.00027386,"MEAN_MOTION_DDOT":0},{"OBJECT_NAME":"STARLINK-33573","OBJECT_ID":"2025-015W","EPOCH":"2026-03-19T19:20:17.822112","MEAN_MOTION":15.30211132,"ECCENTRICITY":9.69e-5,"INCLINATION":53.1596,"RA_OF_ASC_NODE":275.1999,"ARG_OF_PERICENTER":107.1209,"MEAN_ANOMALY":252.9898,"EPHEMERIS_TYPE":0,"CLASSIFICATION_TYPE":"U","NORAD_CAT_ID":62778,"ELEMENT_SET_NO":999,"REV_AT_EPOCH":6603,"BSTAR":0.0006613,"MEAN_MOTION_DOT":0.00019284,"MEAN_MOTION_DDOT":0},{"OBJECT_NAME":"STARLINK-33568","OBJECT_ID":"2025-015X","EPOCH":"2026-03-19T18:19:40.848672","MEAN_MOTION":15.30198389,"ECCENTRICITY":0.0001106,"INCLINATION":53.1585,"RA_OF_ASC_NODE":275.6519,"ARG_OF_PERICENTER":111.5771,"MEAN_ANOMALY":248.5347,"EPHEMERIS_TYPE":0,"CLASSIFICATION_TYPE":"U","NORAD_CAT_ID":62779,"ELEMENT_SET_NO":999,"REV_AT_EPOCH":6586,"BSTAR":0.00062047,"MEAN_MOTION_DOT":0.00018061,"MEAN_MOTION_DDOT":0},{"OBJECT_NAME":"STARLINK-33593","OBJECT_ID":"2025-015Y","EPOCH":"2026-03-19T19:26:21.858144","MEAN_MOTION":15.30232987,"ECCENTRICITY":9.42e-5,"INCLINATION":53.1578,"RA_OF_ASC_NODE":275.2274,"ARG_OF_PERICENTER":84.2671,"MEAN_ANOMALY":275.8437,"EPHEMERIS_TYPE":0,"CLASSIFICATION_TYPE":"U","NORAD_CAT_ID":62780,"ELEMENT_SET_NO":999,"REV_AT_EPOCH":6603,"BSTAR":0.00095417,"MEAN_MOTION_DOT":0.00028036,"MEAN_MOTION_DDOT":0},{"OBJECT_NAME":"STARLINK-33588","OBJECT_ID":"2025-015Z","EPOCH":"2026-03-19T18:21:56.551104","MEAN_MOTION":15.30198263,"ECCENTRICITY":8.51e-5,"INCLINATION":53.1566,"RA_OF_ASC_NODE":273.4687,"ARG_OF_PERICENTER":86.4371,"MEAN_ANOMALY":273.6727,"EPHEMERIS_TYPE":0,"CLASSIFICATION_TYPE":"U","NORAD_CAT_ID":62781,"ELEMENT_SET_NO":999,"REV_AT_EPOCH":6605,"BSTAR":0.00026413,"MEAN_MOTION_DOT":7.471e-5,"MEAN_MOTION_DDOT":0},{"OBJECT_NAME":"STARLINK-33585","OBJECT_ID":"2025-015AA","EPOCH":"2026-03-19T20:40:40.640736","MEAN_MOTION":15.30206645,"ECCENTRICITY":0.0001225,"INCLINATION":53.1594,"RA_OF_ASC_NODE":274.8393,"ARG_OF_PERICENTER":95.0916,"MEAN_ANOMALY":265.0224,"EPHEMERIS_TYPE":0,"CLASSIFICATION_TYPE":"U","NORAD_CAT_ID":62782,"ELEMENT_SET_NO":999,"REV_AT_EPOCH":6576,"BSTAR":0.00089373,"MEAN_MOTION_DOT":0.00026209,"MEAN_MOTION_DDOT":0},{"OBJECT_NAME":"STARLINK-33582","OBJECT_ID":"2025-015AB","EPOCH":"2026-03-19T19:31:07.698720","MEAN_MOTION":15.31023158,"ECCENTRICITY":6.41e-5,"INCLINATION":53.1601,"RA_OF_ASC_NODE":275.2491,"ARG_OF_PERICENTER":51.3251,"MEAN_ANOMALY":308.7807,"EPHEMERIS_TYPE":0,"CLASSIFICATION_TYPE":"U","NORAD_CAT_ID":62783,"ELEMENT_SET_NO":999,"REV_AT_EPOCH":6596,"BSTAR":0.0006897,"MEAN_MOTION_DOT":0.00020651,"MEAN_MOTION_DDOT":0},{"OBJECT_NAME":"STARLINK-33581","OBJECT_ID":"2025-015AC","EPOCH":"2026-03-19T20:24:07.509888","MEAN_MOTION":15.3019868,"ECCENTRICITY":0.000117,"INCLINATION":53.1562,"RA_OF_ASC_NODE":275.4788,"ARG_OF_PERICENTER":69.9223,"MEAN_ANOMALY":290.1904,"EPHEMERIS_TYPE":0,"CLASSIFICATION_TYPE":"U","NORAD_CAT_ID":62784,"ELEMENT_SET_NO":999,"REV_AT_EPOCH":6603,"BSTAR":0.00031845,"MEAN_MOTION_DOT":9.084e-5,"MEAN_MOTION_DDOT":0},{"OBJECT_NAME":"STARLINK-32883","OBJECT_ID":"2025-018A","EPOCH":"2026-03-19T18:35:31.986528","MEAN_MOTION":15.30202805,"ECCENTRICITY":8.43e-5,"INCLINATION":53.1602,"RA_OF_ASC_NODE":262.6689,"ARG_OF_PERICENTER":88.3238,"MEAN_ANOMALY":271.7859,"EPHEMERIS_TYPE":0,"CLASSIFICATION_TYPE":"U","NORAD_CAT_ID":62806,"ELEMENT_SET_NO":999,"REV_AT_EPOCH":6563,"BSTAR":0.00045361,"MEAN_MOTION_DOT":0.000131,"MEAN_MOTION_DDOT":0},{"OBJECT_NAME":"STARLINK-32886","OBJECT_ID":"2025-018B","EPOCH":"2026-03-19T18:34:01.155936","MEAN_MOTION":15.30201831,"ECCENTRICITY":9.49e-5,"INCLINATION":53.1591,"RA_OF_ASC_NODE":262.6606,"ARG_OF_PERICENTER":92.377,"MEAN_ANOMALY":267.734,"EPHEMERIS_TYPE":0,"CLASSIFICATION_TYPE":"U","NORAD_CAT_ID":62807,"ELEMENT_SET_NO":999,"REV_AT_EPOCH":6472,"BSTAR":0.0010581,"MEAN_MOTION_DOT":0.00031112,"MEAN_MOTION_DDOT":0},{"OBJECT_NAME":"STARLINK-32848","OBJECT_ID":"2025-018C","EPOCH":"2026-03-19T18:41:36.608352","MEAN_MOTION":15.30187193,"ECCENTRICITY":0.0001099,"INCLINATION":53.1599,"RA_OF_ASC_NODE":262.6933,"ARG_OF_PERICENTER":117.0455,"MEAN_ANOMALY":243.0657,"EPHEMERIS_TYPE":0,"CLASSIFICATION_TYPE":"U","NORAD_CAT_ID":62808,"ELEMENT_SET_NO":999,"REV_AT_EPOCH":6471,"BSTAR":0.00076192,"MEAN_MOTION_DOT":0.00022265,"MEAN_MOTION_DDOT":0}]
